COSMOS 2251 DEB         
1 35611U 93036ANE 26193.21059039  .00005801  00000+0  79576-3 0  9997
2 35611  74.0184 124.9322 0020450 155.7696 204.4446 14.78496126904101
COSMOS 2251 DEB         
1 35614U 93036ANH 26190.93061144  .00002421  00000+0  40256-3 0  9994
2 35614  73.9581 281.1574 0072703  83.5056 277.4385 14.68951699907996
COSMOS 2251 DEB         
1 35645U 93036ANL 26193.29303917  .00002609  00000+0  69305-3 0  9991
2 35645  73.9634  50.7139 0069226 156.2461 204.1920 14.47721412898312
COSMOS 2251 DEB         
1 35646U 93036ANM 26194.13344263  .00000569  00000+0  57002-3 0  9999
2 35646  73.8682  78.8727 0458837 152.4322 359.3165 13.41159841847056
COSMOS 2251 DEB         
1 35647U 93036ANN 26180.99258092  .00001547  00000+0  44927-3 0  9992
2 35647  74.0221 283.5915 0047893 336.8018  23.0976 14.44532743705406
COSMOS 2251 DEB         
1 35650U 93036ANR 26187.39307024  .00014264  00000+0  14772-2 0  9991
2 35650  74.0441 329.4530 0014635 344.2138  47.0976 14.89983611906919
COSMOS 2251 DEB         
1 35660U 93036APB 26194.42916933  .00000578  00000+0  15425-3 0  9999
2 35660  74.0398  93.7561 0018021 191.2120 286.4814 14.50559638689543
COSMOS 2251 DEB         
1 35661U 93036APC 26189.27912102  .00004016  00000+0  40038-3 0  9990
2 35661  74.0122  25.0460 0084021  75.4311 285.6169 14.89288608909551
COSMOS 2251 DEB         
1 35663U 93036APE 26174.18878340  .00005433  00000+0  94360-3 0  9992
2 35663  74.0166 112.8084 0007016 153.8364 206.3162 14.68406989762041
COSMOS 2251 DEB         
1 35667U 93036APJ 26175.60498450  .00003547  00000+0  71527-3 0  9998
2 35667  74.0533 130.0114 0018754 145.2696 214.9699 14.61744300736342
COSMOS 2251 DEB         
1 35668U 93036APK 26192.63485313  .00000438  00000+0  84688-4 0  9994
2 35668  74.0437 175.4881 0083062 227.7876 131.6223 14.64550662907347
COSMOS 2251 DEB         
1 35669U 93036APL 26189.63512960  .00000528  00000+0  47344-3 0  9997
2 35669  73.8613 180.0953 0386907 256.0601  99.7203 13.57573920636106
COSMOS 2251 DEB         
1 35670U 93036APM 26192.43854309  .00007579  00000+0  59567-3 0  9990
2 35670  73.8908 354.1102 0029888 268.4996  91.2767 15.00683727908810
COSMOS 2251 DEB         
1 35671U 93036APN 26191.97779029  .00000258  00000+0  75386-4 0  9999
2 35671  74.0169  45.0173 0040108 168.1301 260.7752 14.48632328898076
COSMOS 2251 DEB         
1 35674U 93036APR 26193.22946410  .00001937  00000+0  41632-3 0  9993
2 35674  74.0592 276.2472 0093252 269.7955  89.2523 14.56612694891885
COSMOS 2251 DEB         
1 35701U 93036APW 26189.04914133  .00001203  00000+0  83406-3 0  9997
2 35701  74.0034 313.4911 0289090 117.6412 245.4378 13.81648520650213
COSMOS 2251 DEB         
1 35703U 93036APY 26190.67794728  .00003160  00000+0  29193-3 0  9993
2 35703  74.0407 343.3745 0062592 358.1969   1.8978 14.93584936697328
COSMOS 2251 DEB         
1 35705U 93036AQA 26194.05747815  .00008957  00000+0  11696-2 0  9993
2 35705  74.2702  85.7711 0020708 322.0054  37.9662 14.80457210890604
COSMOS 2251 DEB         
1 35706U 93036AQB 26179.01557313  .00001230  00000+0  10041-2 0  9995
2 35706  73.8865  96.6961 0343805 110.8117 253.0181 13.66481123647562
COSMOS 2251 DEB         
1 35711U 93036AQG 26193.28621870  .00000382  00000+0  74801-4 0  9999
2 35711  74.0441 174.3234 0085161 222.3633 137.0940 14.64340087908676
COSMOS 2251 DEB         
1 35716U 93036AQM 26191.59674965  .00000320  00000+0  69132-4 0  9992
2 35716  73.9931 152.5314 0090238 302.8112 174.7823 14.60336999906902
COSMOS 2251 DEB         
1 35717U 93036AQN 26189.31608000  .00001868  00000+0  58106-3 0  9993
2 35717  74.1589 197.2290 0077040 355.8926   4.1587 14.39965640770865
COSMOS 2251 DEB         
1 35718U 93036AQP 26190.38169376  .00004517  00000+0  71977-3 0  9996
2 35718  74.0309  84.9063 0010552  91.3295 268.9086 14.72235272689075
COSMOS 2251 DEB         
1 35721U 93036AQS 26177.25513701  .00003422  00000+0  10520-2 0  9996
2 35721  73.9469 177.1661 0146545 280.5694  77.8979 14.35941997605949
COSMOS 2251 DEB         
1 35724U 93036AQV 26190.55683761  .00000463  00000+0  10336-3 0  9999
2 35724  74.0316 265.0911 0060431   4.7288 355.4434 14.58659534905733
COSMOS 2251 DEB         
1 35759U 93036ARD 26194.59769403  .00000464  00000+0  88012-4 0  9991
2 35759  74.0370 166.4469 0077200 231.8081 127.6119 14.65528475692536
COSMOS 2251 DEB         
1 35764U 93036ARJ 26169.73560983  .00006107  00000+0  81071-3 0  9994
2 35764  74.0248 333.6412 0024742  48.3308 311.9981 14.79801246688263
COSMOS 2251 DEB         
1 35771U 93036ARR 26194.28834522  .00005583  00000+0  22627-2 0  9991
2 35771  74.1571 295.3766 0200994 175.5770 184.7214 14.17528487858683
COSMOS 2251 DEB         
1 35773U 93036ART 26193.96384860  .00001098  00000+0  21593-3 0  9991
2 35773  74.0090 293.3625 0046190  37.5808 322.8572 14.63234898899427
COSMOS 2251 DEB         
1 35777U 93036ARX 26194.40011353  .00000382  00000+0  39981-3 0  9994
2 35777  73.7721 342.9272 0449535 206.1316 184.0078 13.41500456825367
COSMOS 2251 DEB         
1 35784U 93036ASE 26188.33154649  .00000641  00000+0  16948-3 0  9999
2 35784  74.0373  61.6298 0040745 140.2189 220.1972 14.50452434687017
COSMOS 2251 DEB         
1 35786U 93036ASG 26193.42762868  .00002443  00000+0  42354-3 0  9997
2 35786  74.0130 354.4068 0035290  68.5643 291.9285 14.68431462765134
COSMOS 2251 DEB         
1 35789U 93036ASK 26189.47495990  .00000125  00000+0  51339-4 0  9998
2 35789  74.0383 263.0184 0048863 312.4190  47.2834 14.36122791642097
COSMOS 2251 DEB         
1 35793U 93036ASP 26194.16421589  .00006336  00000+0  76114-3 0  9995
2 35793  74.0392   0.7179 0005919  43.4556  75.8923 14.84166237689435
COSMOS 2251 DEB         
1 35824U 93036ASW 26193.92592140  .00000997  00000+0  64851-3 0  9997
2 35824  73.8429  43.7712 0253589  91.7741 271.2447 13.89159841871734
COSMOS 2251 DEB         
1 35825U 93036ASX 26190.64064794  .00000842  00000+0  61349-3 0  9991
2 35825  74.1109 158.9423 0353079 205.4200 152.9187 13.71711835853724
COSMOS 2251 DEB         
1 35829U 93036ATB 26193.56404878  .00005897  00000+0  75209-3 0  9995
2 35829  74.0234  41.7510 0008108  68.7966 291.4076 14.81687480909077
COSMOS 2251 DEB         
1 35830U 93036ATC 26194.47391424  .00001158  00000+0  46451-3 0  9993
2 35830  73.8598 238.6472 0116340 166.1187 194.3206 14.25760920642944
COSMOS 2251 DEB         
1 35834U 93036ATG 26194.25332331 -.00000147  00000+0 -61415-4 0  9992
2 35834  73.9313 286.3162 0109609  41.2801 351.6557 14.13131708692659
COSMOS 2251 DEB         
1 35835U 93036ATH 26186.97962472  .00000791  00000+0  52803-3 0  9991
2 35835  74.0621 283.1169 0294636  17.5342 343.5695 13.83526433645376
COSMOS 2251 DEB         
1 35836U 93036ATJ 26193.22325024  .00004741  00000+0  69537-3 0  9995
2 35836  74.0303 120.3970 0021719 132.6662 227.6347 14.75686833666350
COSMOS 2251 DEB         
1 35837U 93036ATK 26193.44560279  .00001123  00000+0  79799-3 0  9995
2 35837  73.7243 214.8678 0406858 104.6822 327.6360 13.65292121608647
COSMOS 2251 DEB         
1 35840U 93036ATN 26183.56164928  .00006832  00000+0  20239-2 0  9998
2 35840  73.9308 143.3835 0111115   1.0549 359.0817 14.39988385881949
COSMOS 2251 DEB         
1 35883U 93036ATW 26191.32705741  .00000584  00000+0  14841-3 0  9993
2 35883  74.0227  35.5816 0082491 112.5920  67.1923 14.51009404654251
COSMOS 2251 DEB         
1 35884U 93036ATX 26183.14900092  .00003750  00000+0  14469-2 0  9994
2 35884  73.9898 330.8460 0113492  70.3705 290.9650 14.27049275252292
COSMOS 2251 DEB         
1 35885U 93036ATY 26186.96706917  .00000602  00000+0  20754-3 0  9996
2 35885  74.0285 276.8118 0024866 310.8812  49.0187 14.37855258679659
COSMOS 2251 DEB         
1 35888U 93036AUB 26192.72796779  .00000659  00000+0  14425-3 0  9995
2 35888  74.0334 314.7741 0049416  31.6907 328.7216 14.59075758893507
COSMOS 2251 DEB         
1 35890U 93036AUD 26193.41375003  .00002716  00000+0  55483-3 0  9993
2 35890  73.9336 196.8294 0056380 276.2362  83.2382 14.60413926682386
COSMOS 2251 DEB         
1 35891U 93036AUE 26182.26725189  .00155067  00000+0  19081-2 0  9990
2 35891  73.9792  15.8572 0027331 103.0284 257.3987 15.59190255703178
COSMOS 2251 DEB         
1 35895U 93036AUJ 26185.14251742  .00002586  00000+0  14052-2 0  9993
2 35895  74.0476 354.4487 0205859  45.4471 316.3268 14.02558903618639
COSMOS 2251 DEB         
1 35898U 93036AUM 26189.39905661  .00003051  00000+0  24693-3 0  9994
2 35898  73.9896 236.5090 0078735 326.7627  47.3846 14.97846353699168
COSMOS 2251 DEB         
1 35901U 93036AUQ 26182.11327214  .00673176  00000+0  72595-2 0  9998
2 35901  73.9905 317.4834 0007547 313.3076  46.7513 15.61386208891856
COSMOS 2251 DEB         
1 35902U 93036AUR 26182.41266679  .00001632  00000+0  63312-3 0  9999
2 35902  73.9811 230.0224 0103847 300.3857  58.7057 14.27850117639930
COSMOS 2251 DEB         
1 35905U 93036AUU 26194.22138308  .00002257  00000+0  16273-3 0  9999
2 35905  74.0310 138.2647 0084379 163.2296 197.1715 15.01996285917701
COSMOS 2251 DEB         
1 35959U 93036AUZ 26192.26363118  .00000088  00000+0  40515-4 0  9996
2 35959  74.0331 286.6256 0023187 317.5877  42.3482 14.34266381879460
COSMOS 2251 DEB         
1 35961U 93036AVB 26194.36333884  .00000808  00000+0  43153-3 0  9999
2 35961  73.9244 189.8447 0184412  79.0057 283.1762 14.06410150656709
COSMOS 2251 DEB         
1 35975U 93036AVR 26191.00977825  .00001427  00000+0  54614-3 0  9993
2 35975  74.0512 310.9620 0111821 340.8335  18.8621 14.28152373670882
COSMOS 2251 DEB         
1 35979U 93036AVV 26188.40216731  .00002904  00000+0  40657-3 0  9992
2 35979  74.0078 193.2638 0060242 275.1596 153.3305 14.76815001916821
COSMOS 2251 DEB         
1 35980U 93036AVW 26185.01997281  .00005490  00000+0  10885-2 0  9996
2 35980  73.9108  91.4078 0052977 180.9310 179.1766 14.61585816644541
COSMOS 2251 DEB         
1 35982U 93036AVY 26194.28576277  .00000914  00000+0  17557-3 0  9995
2 35982  74.0572 299.6161 0065349 312.0593  47.5025 14.63925697892754
